ONEWEB-0709             
1 55172U 23004AJ  24253.73365268 -.00001122  00000+0 -32024-2 0  9995
2 55172  87.8980 149.6435 0002760  91.4925 268.6519 13.11419523 81285
ONEWEB-0710             
1 55173U 23004AK  24253.59494007  .00000033  00000+0  52661-4 0  9993
2 55173  87.9149 134.4859 0001952  74.3983 285.7364 13.17651292 82569
ONEWEB-0711             
1 55174U 23004AL  24253.78114312  .00000602  00000+0  16632-2 0  9991
2 55174  87.8979 149.6031 0002336  54.1332 306.0013 13.11416966 81255
ONEWEB-0713             
1 55175U 23004AM  24253.79978858  .00000142  00000+0  36501-3 0  9993
2 55175  87.8979 149.6075 0001951  64.8863 295.2467 13.11415263 81232
ONEWEB-0715             
1 55176U 23004AN  24253.79470906  .00000322  00000+0  87180-3 0  9994
2 55176  87.8979 149.6088 0002184  76.9128 283.2244 13.11416028 81289
ONEWEB-0716             
1 55177U 23004AP  24253.58847291  .00000069  00000+0  14335-3 0  9997
2 55177  87.9150 134.4808 0001609  77.0449 283.0862 13.17648295 82568
ONEWEB-0717             
1 55178U 23004AQ  24253.41883616  .00000135  00000+0  31410-3 0  9998
2 55178  87.9149 134.4771 0002500  62.1564 297.9821 13.17649984 82598
ONEWEB-0719             
1 55179U 23004AR  24253.73388197  .00000052  00000+0  10066-3 0  9990
2 55179  87.9149 134.4007 0001543  69.8357 290.2941 13.17648209 82588
ONEWEB-0530             
1 55796U 23029A   24253.49107613 -.00000078  00000+0 -22341-3 0  9996
2 55796  87.9214  42.9090 0001978  77.0370 283.0984 13.20775380 75910
ONEWEB-0534             
1 55797U 23029B   24253.47847070 -.00000003  00000+0 -39266-4 0  9996
2 55797  87.9226  42.9201 0001605  97.7391 262.3925 13.20771719 75914
ONEWEB-0556             
1 55798U 23029C   24253.78780046  .00000008  00000+0 -12981-4 0  9999
2 55798  87.9227  42.8516 0000983  74.0260 286.0982 13.20768723 76643
ONEWEB-0562             
1 55799U 23029D   24253.47216154 -.00000005  00000+0 -43088-4 0  9990
2 55799  87.9227  42.9057 0001523  57.0827 303.0452 13.20771736 75915
ONEWEB-0563             
1 55800U 23029E   24253.46582852 -.00000346  00000+0 -88362-3 0  9994
2 55800  87.9229  42.9219 0001519 104.0932 256.0370 13.20775295 75904
ONEWEB-0564             
1 55801U 23029F   24253.45950984  .00000143  00000+0  32086-3 0  9994
2 55801  87.9226  42.9090 0001801  80.6415 279.4922 13.20774008 75912
ONEWEB-0638             
1 55802U 23029G   24253.53366687  .00000222  00000+0  56395-3 0  9992
2 55802  87.8944  58.1617 0001101  82.4252 277.7003 13.14499814 74579
ONEWEB-0639             
1 55803U 23029H   24253.75519234  .00000227  00000+0  53374-3 0  9994
2 55803  87.9097  73.3631 0001983 134.3010 225.8285 13.19723325 74468
ONEWEB-0640             
1 55804U 23029J   24253.46706689  .00000183  00000+0  45949-3 0  9995
2 55804  87.8938  58.1689 0000888 105.0149 255.1079 13.14500621 74584
ONEWEB-0641             
1 55805U 23029K   24253.75045256  .00000212  00000+0  49675-3 0  9997
2 55805  87.9095  73.3439 0001698  99.1982 260.9342 13.19723658 74477
ONEWEB-0642             
1 55806U 23029L   24253.51827817  .00000064  00000+0  12746-3 0  9997
2 55806  87.9100  73.4164 0002048 121.8478 238.2854 13.19725450 73741
ONEWEB-0643             
1 55807U 23029M   24253.81751283  .00000172  00000+0  43016-3 0  9998
2 55807  87.8941  58.0770 0002450 111.2337 248.9054 13.14504903 75318
ONEWEB-0644             
1 55808U 23029N   24253.74097782  .00000155  00000+0  35579-3 0  9994
2 55808  87.9102  73.3698 0001898 109.9228 250.2110 13.19723620 74464
ONEWEB-0645             
1 55809U 23029P   24253.50958230  .00000104  00000+0  22691-3 0  9998
2 55809  87.9101  73.4163 0001416 107.8038 252.3249 13.19726422 73743
ONEWEB-0646             
1 55810U 23029Q   24253.53958532  .00000067  00000+0  13394-3 0  9996
2 55810  87.9098  73.4080 0001792  98.5445 261.5891 13.19726564 73734
ONEWEB-0648             
1 55811U 23029R   24253.48132692 -.00000071  00000+0 -22506-3 0  9994
2 55811  87.8941  58.1163 0001712 130.6132 229.5147 13.14500573 74561
ONEWEB-0649             
1 55812U 23029S   24253.72991892  .00000070  00000+0  14268-3 0  9990
2 55812  87.9097  73.3645 0001618 103.8313 256.3000 13.19726139 74487
ONEWEB-0650             
1 55813U 23029T   24253.57354572  .00000005  00000+0 -21074-4 0  9995
2 55813  87.9098  73.3991 0001843  99.4979 260.6362 13.19723102 73745
ONEWEB-0652             
1 55814U 23029U   24253.53842501  .00000189  00000+0  47414-3 0  9993
2 55814  87.8943  58.1164 0001660  87.4622 272.6698 13.14505377 74547
ONEWEB-0653             
1 55815U 23029V   24253.82705054  .00000167  00000+0  41484-3 0  9994
2 55815  87.8944  58.0407 0001447  86.3845 273.7450 13.14500090 75306
ONEWEB-0654             
1 55816U 23029W   24253.82229162  .00000219  00000+0  55524-3 0  9994
2 55816  87.8941  58.0495 0001690  76.5286 283.6032 13.14501106 75328
ONEWEB-0656             
1 55817U 23029X   24253.45320114  .00000066  00000+0  13109-3 0  9996
2 55817  87.9229  42.8522 0002159  78.9908 281.1468 13.20774160 75919
ONEWEB-0657             
1 55818U 23029Y   24253.56880919 -.00000030  00000+0 -10831-3 0  9995
2 55818  87.9100  73.4051 0002582  82.9699 277.1727 13.19724448 73752
ONEWEB-0658             
1 55819U 23029Z   24253.56404222  .00002029  00000+0  50345-2 0  9996
2 55819  87.9099  73.3413 0001957 108.4992 251.6353 13.19743062 74448
ONEWEB-0660             
1 55820U 23029AA  24253.72397010 -.00000238  00000+0 -67577-3 0  9990
2 55820  87.8940  58.0427 0001297 104.9323 255.1950 13.14500955 75311
ONEWEB-0661             
1 55821U 23029AB  24253.53049112  .00000250  00000+0  63977-3 0  9999
2 55821  87.8944  58.1495 0001199  98.7671 261.3594 13.14504778 74565
ONEWEB-0662             
1 55822U 23029AC  24253.48925568 -.00000173  00000+0 -50103-3 0  9995
2 55822  87.8940  58.1649 0001484 103.1858 256.9437 13.14504609 74602
ONEWEB-0663             
1 55823U 23029AD  24253.82361709  .00000086  00000+0  17942-3 0  9990
2 55823  87.9227  42.8385 0001508 110.2162 249.9134 13.20798189 76639
ONEWEB-0664             
1 55824U 23029AE  24253.44059746  .00000165  00000+0  37269-3 0  9996
2 55824  87.9227  42.9291 0001292  85.7713 274.3568 13.20772373 75904
ONEWEB-0665             
1 55825U 23029AF  24253.83181945  .00000143  00000+0  35213-3 0  9990
2 55825  87.8942  58.0642 0001478 101.6341 258.4954 13.14500522 75312
ONEWEB-0666             
1 55826U 23029AG  24253.81306060  .00000072  00000+0  14565-3 0  9994
2 55826  87.9228  42.8453 0001918  84.0579 276.0773 13.20768477 76642
ONEWEB-0667             
1 55827U 23029AH  24253.42797678  .00000233  00000+0  54191-3 0  9999
2 55827  87.9227  42.8553 0001427  98.1243 262.0052 13.20771866 75901
ONEWEB-0669             
1 55828U 23029AJ  24253.80200598  .00000012  00000+0 -32288-5 0  9993
2 55828  87.9228  42.8180 0001689  68.5571 291.5743 13.20774516 76634
ONEWEB-0670             
1 55829U 23029AK  24253.50513522  .00000066  00000+0  14324-3 0  9992
2 55829  87.8944  58.1381 0001186  91.1901 268.9364 13.14501378 74602
ONEWEB-0671             
1 55830U 23029AL  24253.55933680 -.00000092  00000+0 -26100-3 0  9996
2 55830  87.9099  73.4041 0001429  91.7475 268.3822 13.19724526 73745
ONEWEB-0672             
1 55831U 23029AM  24253.79728677  .00000082  00000+0  16897-3 0  9990
2 55831  87.9228  42.8032 0001972  86.7457 273.3901 13.20769456 76635
ONEWEB-0673             
1 55832U 23029AN  24253.53564021  .00000096  00000+0  20740-3 0  9991
2 55832  87.9095  73.3751 0001502  93.6966 266.4338 13.19723097 73741
ONEWEB-0674             
1 55833U 23029AP  24253.70175505  .00000121  00000+0  29175-3 0  9996
2 55833  87.8940  58.0999 0001098  81.0101 279.1153 13.14505547 75297
ONEWEB-0675             
1 55834U 23029AQ  24253.55145096 -.00000031  00000+0 -11071-3 0  9990
2 55834  87.9101  73.4085 0002114  92.0965 268.0410 13.19724339 73765
ONEWEB-0720             
1 55835U 23029AR  24253.54352561  .00000189  00000+0  44075-3 0  9999
2 55835  87.9098  73.4096 0001563 107.2885 252.8418 13.19725389 73686
ONEWEB-0537             
1 56046U 23043A   24253.82841072  .00000118  00000+0  27533-3 0  9993
2 56046  87.9171 357.2786 0002093  97.2134 262.9235 13.16596871 74955
ONEWEB-0538             
1 56047U 23043B   24253.82208028  .00000129  00000+0  30469-3 0  9996
2 56047  87.9172 357.3000 0002057 107.0769 253.0588 13.16591897 74967
ONEWEB-0546             
1 56048U 23043C   24253.58143380  .00000241  00000+0  59638-3 0  9993
2 56048  87.9171 357.3128 0002384  83.4669 276.6733 13.16595176 74920
ONEWEB-0547             
1 56049U 23043D   24253.63478318  .00000166  00000+0  37141-3 0  9993
2 56049  87.9354  12.5121 0002019 104.4913 255.6445 13.21826391 72947
ONEWEB-0548             
1 56050U 23043E   24253.53075157  .00000149  00000+0  35738-3 0  9999
2 56050  87.9174 357.3656 0001263  94.7202 265.4073 13.16592345 74002
ONEWEB-0549             
1 56051U 23043F   24253.62610396  .00000180  00000+0  40471-3 0  9995
2 56051  87.9355  12.5142 0001861 103.6484 256.4858 13.21823773 72940
ONEWEB-0550             
1 56052U 23043G   24253.61349697  .00000142  00000+0  31161-3 0  9992
2 56052  87.9354  12.5213 0001617 100.4499 259.6817 13.21825463 72947
ONEWEB-0551             
1 56053U 23043H   24253.42852256  .00000092  00000+0  20956-3 0  9996
2 56053  87.9083  27.7347 0001766 105.9051 254.2274 13.15546844 71495
ONEWEB-0552             
1 56054U 23043J   24253.83426241 -.00010800  00000+0 -26192-1 0  9999
2 56054  87.9355  12.4873 0001322 108.3078 251.8200 13.21879301 73888
ONEWEB-0553             
1 56055U 23043K   24253.81575340  .00000131  00000+0  31011-3 0  9995
2 56055  87.9172 357.2975 0002043  93.6553 266.4812 13.16592522 74966
ONEWEB-0554             
1 56056U 23043L   24253.57507539  .00000136  00000+0  32283-3 0  9991
2 56056  87.9172 357.3683 0001155 100.9637 259.1624 13.16596763 74918
